{
  "type": "FeatureCollection",
  "features": [
    {
      "type": "Feature",
      "properties": {
        "norad_id": 30127,
        "name": "FENGYUN 1C DEB",
        "group": "fengyun-1c-debris",
        "lat": -14.821770868003764,
        "lon": 25.113626244755192,
        "alt_km": 807.3520096970597,
        "timestamp": "2025-12-16T23:36:36.470549+00:00",
        "meta_object_name": "FENGYUN 1C DEB",
        "meta_object_id": "1999-025SG",
        "meta_epoch": "2025-12-16T01:00:21.208032",
        "meta_mean_motion": 14.38041885,
        "meta_eccentricity": 0.00855613,
        "meta_inclination": 98.2079,
        "meta_ra_of_asc_node": 206.4025,
        "meta_arg_of_pericenter": 69.1797,
        "meta_mean_anomaly": 291.8529,
        "meta_ephemeris_type": 0,
        "meta_classification_type": "U",
        "meta_norad_cat_id": 30127,
        "meta_element_set_no": 999,
        "meta_rev_at_epoch": 97283,
        "meta_bstar": 0.0016612676,
        "meta_mean_motion_dot": 5.208e-05,
        "meta_mean_motion_ddot": 0,
        "tle_line1": "1 30127U 99025SG  25350.04191213  .00005208  00000+0  16613-2 0  9997",
        "tle_line2": "2 30127  98.2079 206.4025 0085561  69.1797 291.8529 14.38041885972830"
      },
      "geometry": {
        "type": "Point",
        "coordinates": [
          25.113626244755192,
          -14.821770868003764
        ]
      }
    },
    {
      "type": "Feature",
      "properties": {
        "norad_id": 30128,
        "name": "FENGYUN 1C DEB",
        "group": "fengyun-1c-debris",
        "lat": -64.1097509912916,
        "lon": 3.6055577001168455,
        "alt_km": 821.7701984454234,
        "timestamp": "2025-12-16T23:36:36.470560+00:00",
        "meta_object_name": "FENGYUN 1C DEB",
        "meta_object_id": "1999-025SH",
        "meta_epoch": "2025-12-15T23:08:31.243200",
        "meta_mean_motion": 14.46168582,
        "meta_eccentricity": 0.01075304,
        "meta_inclination": 96.9795,
        "meta_ra_of_asc_node": 348.1463,
        "meta_arg_of_pericenter": 114.813,
        "meta_mean_anomaly": 275.7387,
        "meta_ephemeris_type": 0,
        "meta_classification_type": "U",
        "meta_norad_cat_id": 30128,
        "meta_element_set_no": 999,
        "meta_rev_at_epoch": 97358,
        "meta_bstar": 0.00163294,
        "meta_mean_motion_dot": 6.241e-05,
        "meta_mean_motion_ddot": 0,
        "tle_line1": "1 30128U 99025SH  25349.96425050  .00006241  00000+0  16329-2 0  9998",
        "tle_line2": "2 30128  96.9795 348.1463 0107530 114.8130 275.7387 14.46168582973580"
      },
      "geometry": {
        "type": "Point",
        "coordinates": [
          3.6055577001168455,
          -64.1097509912916
        ]
      }
    },
    {
      "type": "Feature",
      "properties": {
        "norad_id": 30129,
        "name": "FENGYUN 1C DEB",
        "group": "fengyun-1c-debris",
        "lat": -68.00408827103197,
        "lon": -47.21678586021686,
        "alt_km": 1013.3676455203695,
        "timestamp": "2025-12-16T23:36:36.470570+00:00",
        "meta_object_name": "FENGYUN 1C DEB",
        "meta_object_id": "1999-025SJ",
        "meta_epoch": "2025-12-16T07:31:20.023680",
        "meta_mean_motion": 14.01585224,
        "meta_eccentricity": 0.01886298,
        "meta_inclination": 98.0284,
        "meta_ra_of_asc_node": 291.7425,
        "meta_arg_of_pericenter": 82.2905,
        "meta_mean_anomaly": 69.0236,
        "meta_ephemeris_type": 0,
        "meta_classification_type": "U",
        "meta_norad_cat_id": 30129,
        "meta_element_set_no": 999,
        "meta_rev_at_epoch": 96528,
        "meta_bstar": 0.00056026801,
        "meta_mean_motion_dot": 9.56e-06,
        "meta_mean_motion_ddot": 0,
        "tle_line1": "1 30129U 99025SJ  25350.31342620  .00000956  00000+0  56027-3 0  9998",
        "tle_line2": "2 30129  98.0284 291.7425 0188629  82.2905  69.0236 14.01585224965286"
      },
      "geometry": {
        "type": "Point",
        "coordinates": [
          -47.21678586021686,
          -68.00408827103197
        ]
      }
    },
    {
      "type": "Feature",
      "properties": {
        "norad_id": 30131,
        "name": "FENGYUN 1C DEB",
        "group": "fengyun-1c-debris",
        "lat": -56.98177401408626,
        "lon": 97.17445889296214,
        "alt_km": 882.1473102293985,
        "timestamp": "2025-12-16T23:36:36.470580+00:00",
        "meta_object_name": "FENGYUN 1C DEB",
        "meta_object_id": "1999-025SL",
        "meta_epoch": "2025-12-16T05:33:32.253120",
        "meta_mean_motion": 14.21228829,
        "meta_eccentricity": 0.00827561,
        "meta_inclination": 99.076,
        "meta_ra_of_asc_node": 82.1626,
        "meta_arg_of_pericenter": 149.0529,
        "meta_mean_anomaly": 266.4059,
        "meta_ephemeris_type": 0,
        "meta_classification_type": "U",
        "meta_norad_cat_id": 30131,
        "meta_element_set_no": 999,
        "meta_rev_at_epoch": 96738,
        "meta_bstar": 0.0017458782,
        "meta_mean_motion_dot": 3.891e-05,
        "meta_mean_motion_ddot": 0,
        "tle_line1": "1 30131U 99025SL  25350.23162330  .00003891  00000+0  17459-2 0  9996",
        "tle_line2": "2 30131  99.0760  82.1626 0082756 149.0529 266.4059 14.21228829967388"
      },
      "geometry": {
        "type": "Point",
        "coordinates": [
          97.17445889296214,
          -56.98177401408626
        ]
      }
    },
    {
      "type": "Feature",
      "properties": {
        "norad_id": 30132,
        "name": "FENGYUN 1C DEB",
        "group": "fengyun-1c-debris",
        "lat": -67.12169386753966,
        "lon": 101.13930805533656,
        "alt_km": 984.8898924062432,
        "timestamp": "2025-12-16T23:36:36.470591+00:00",
        "meta_object_name": "FENGYUN 1C DEB",
        "meta_object_id": "1999-025SM",
        "meta_epoch": "2025-12-15T19:09:57.387168",
        "meta_mean_motion": 13.94853072,
        "meta_eccentricity": 0.01056501,
        "meta_inclination": 99.5777,
        "meta_ra_of_asc_node": 303.496,
        "meta_arg_of_pericenter": 41.5872,
        "meta_mean_anomaly": 19.9817,
        "meta_ephemeris_type": 0,
        "meta_classification_type": "U",
        "meta_norad_cat_id": 30132,
        "meta_element_set_no": 999,
        "meta_rev_at_epoch": 96132,
        "meta_bstar": 0.00040688774,
        "meta_mean_motion_dot": 5.25e-06,
        "meta_mean_motion_ddot": 0,
        "tle_line1": "1 30132U 99025SM  25349.79858087  .00000525  00000+0  40689-3 0  9990",
        "tle_line2": "2 30132  99.5777 303.4960 0105650  41.5872  19.9817 13.94853072961322"
      },
      "geometry": {
        "type": "Point",
        "coordinates": [
          101.13930805533656,
          -67.12169386753966
        ]
      }
    },
    {
      "type": "Feature",
      "properties": {
        "norad_id": 30133,
        "name": "FENGYUN 1C DEB",
        "group": "fengyun-1c-debris",
        "lat": -43.98626440200286,
        "lon": 165.462020189651,
        "alt_km": 852.7808078579774,
        "timestamp": "2025-12-16T23:36:36.470625+00:00",
        "meta_object_name": "FENGYUN 1C DEB",
        "meta_object_id": "1999-025SN",
        "meta_epoch": "2025-12-16T00:28:47.261280",
        "meta_mean_motion": 14.06687448,
        "meta_eccentricity": 0.00856632,
        "meta_inclination": 98.3238,
        "meta_ra_of_asc_node": 156.4513,
        "meta_arg_of_pericenter": 251.1172,
        "meta_mean_anomaly": 225.6582,
        "meta_ephemeris_type": 0,
        "meta_classification_type": "U",
        "meta_norad_cat_id": 30133,
        "meta_element_set_no": 999,
        "meta_rev_at_epoch": 96424,
        "meta_bstar": 0.0011076204,
        "meta_mean_motion_dot": 1.861e-05,
        "meta_mean_motion_ddot": 0,
        "tle_line1": "1 30133U 99025SN  25350.01999145  .00001861  00000+0  11076-2 0  9990",
        "tle_line2": "2 30133  98.3238 156.4513 0085663 251.1172 225.6582 14.06687448964240"
      },
      "geometry": {
        "type": "Point",
        "coordinates": [
          165.462020189651,
          -43.98626440200286
        ]
      }
    },
    {
      "type": "Feature",
      "properties": {
        "norad_id": 30134,
        "name": "FENGYUN 1C DEB",
        "group": "fengyun-1c-debris",
        "lat": -1.4628575437581148,
        "lon": 10.117704138481846,
        "alt_km": 864.7366374051571,
        "timestamp": "2025-12-16T23:36:36.470636+00:00",
        "meta_object_name": "FENGYUN 1C DEB",
        "meta_object_id": "1999-025SP",
        "meta_epoch": "2025-12-16T01:51:03.023712",
        "meta_mean_motion": 14.13353733,
        "meta_eccentricity": 0.00191492,
        "meta_inclination": 98.6935,
        "meta_ra_of_asc_node": 9.013,
        "meta_arg_of_pericenter": 173.9813,
        "meta_mean_anomaly": 254.2295,
        "meta_ephemeris_type": 0,
        "meta_classification_type": "U",
        "meta_norad_cat_id": 30134,
        "meta_element_set_no": 999,
        "meta_rev_at_epoch": 97293,
        "meta_bstar": 0.00045412522,
        "meta_mean_motion_dot": 8.11e-06,
        "meta_mean_motion_ddot": 0,
        "tle_line1": "1 30134U 99025SP  25350.07711833  .00000811  00000+0  45413-3 0  9990",
        "tle_line2": "2 30134  98.6935   9.0130 0019149 173.9813 254.2295 14.13353733972934"
      },
      "geometry": {
        "type": "Point",
        "coordinates": [
          10.117704138481846,
          -1.4628575437581148
        ]
      }
    }
  ]
}